STARLINK-6204           
1 56488U 23064AS  26068.51355670  .00002301  00000+0  20050-3 0  9995
2 56488  70.0002 105.0059 0003159 272.6146  87.4651 14.98347279156207
LEMUR-2-LIA-MARTIN      
1 63248U 25052AQ  26068.70341042  .00006911  00000+0  60828-3 0  9993
2 63248  97.6996 322.6614 0003817 139.7155 220.4350 14.96805944 53795
